OBJECT_NAME,OBJECT_ID,EPOCH,MEAN_MOTION,ECCENTRICITY,INCLINATION,RA_OF_ASC_NODE,ARG_OF_PERICENTER,MEAN_ANOMALY,EPHEMERIS_TYPE,CLASSIFICATION_TYPE,NORAD_CAT_ID,ELEMENT_SET_NO,REV_AT_EPOCH,BSTAR,MEAN_MOTION_DOT,MEAN_MOTION_DDOT
PERSEUS-M1,2014-033AF,2026-05-13T09:06:01.692000,14.95509627,.0012845,97.9628,76.9475,57.4952,302.7508,0,U,40039,999,64543,.12397E-3,.1314E-4,0
POLYITAN-1,2014-033AJ,2026-05-13T01:21:38.320992,15.32019115,.0005376,98.0975,156.0281,265.7618,94.3007,0,U,40042,999,64821,.32682E-3,.10021E-3,0
TIGRISAT,2014-033AK,2026-05-13T09:59:22.341120,14.85008518,.0049316,97.7790,284.2372,187.0983,172.9540,0,U,40043,999,64046,.16459E-3,.1379E-4,0
AEROCUBE 6A,2014-033AM,2026-05-13T10:05:13.344576,14.97711925,.0040272,97.7215,300.7558,130.3605,230.1145,0,U,40045,999,64141,.37233E-3,.4377E-4,0
AEROCUBE 6B,2014-033AN,2026-05-13T10:56:47.674176,14.99132953,.0037989,97.7169,300.5116,123.7099,236.7754,0,U,40046,999,64155,.31692E-3,.385E-4,0
CANX-4,2014-034C,2026-05-13T03:50:12.024096,14.81197448,.001389,98.3170,7.1807,120.6264,239.6319,0,U,40055,999,63934,.77075E-4,.543E-5,0
CANX-5,2014-034D,2026-05-13T05:25:48.148608,14.81214543,.0013907,98.3171,7.2908,120.6263,239.6321,0,U,40056,999,63016,.77001E-4,.543E-5,0
UKUBE-1,2014-037F,2026-05-13T10:52:34.197312,15.12978180,.0000418,98.4244,133.0939,66.1202,294.0070,0,U,40074,999,64330,.2597E-3,.4504E-4,0
BRITE-PL2 (HEWELIUSZ),2014-049B,2026-05-13T06:57:49.124160,14.94457930,.001313,97.9058,245.0324,221.1649,138.8581,0,U,40119,999,63623,.71365E-4,.711E-5,0
AEROCUBE 5C,2015-058B,2026-05-13T00:47:04.157664,14.91248892,.01297956,64.7690,11.9373,77.0915,284.4657,0,U,40965,999,36041,.18717417E-3,.2014E-4,0
AEROCUBE 7,2015-058C,2026-05-13T07:54:03.045024,14.95447355,.0119604,64.7635,353.9763,75.6759,285.7599,0,U,40966,999,36074,.23638E-3,.2843E-4,0
FOX-1A (AO-85),2015-058D,2026-05-13T03:15:38.176128,14.90756995,.01289858,64.7769,27.8942,70.3373,291.1605,0,U,40967,999,10834,.18869103E-3,.2E-4,0
SINOD-D 1,2015-058E,2026-05-13T01:03:08.193312,14.95623695,.0117476,64.7766,8.9440,67.1657,294.1813,0,U,40968,999,11140,.23539E-3,.283E-4,0
SNAP-3 ALICE,2015-058G,2026-05-13T08:17:09.099744,15.53437891,.0032894,64.7535,223.6779,30.2775,330.0259,0,U,40970,999,11146,.78457E-3,.51271E-3,0
LMRST-SAT,2015-058H,2026-05-13T03:35:09.769632,14.90382370,.01307768,64.7775,24.1244,72.3606,289.1737,0,U,40971,999,10833,.18660367E-3,.1964E-4,0
SNAP-3 EDDIE,2015-058J,2026-05-13T08:41:00.727872,15.54582077,.0033313,64.7452,214.5951,34.1764,326.1514,0,U,40972,999,11360,.74919E-3,.51085E-3,0
PROPCUBE 3,2015-058K,2026-05-13T01:40:25.886784,14.94012121,.01229359,64.7701,2.2358,73.9002,287.5606,0,U,40973,999,10955,.22188327E-3,.2573E-4,0
BISONSAT,2015-058L,2026-05-13T09:30:21.699072,15.15470103,.0078723,64.7593,286.0564,62.2935,298.6147,0,U,40974,999,11034,.3627E-3,.7251E-4,0
SNAP-3 JIMI,2015-058M,2026-05-12T23:16:42.727008,15.01929999,.01049345,64.7659,331.1663,69.9706,291.2672,0,U,40975,999,10893,.29162938E-3,.4121E-4,0
PROPCUBE 1 (FLORA),2015-058N,2026-05-13T03:20:34.502208,14.89015947,.01295832,64.7760,43.8406,74.6421,286.8966,0,U,40976,999,11104,.17989187E-3,.181E-4,0
SINOD-D 3,2015-058P,2026-05-13T10:19:22.506240,14.93741797,.0118078,64.7741,24.3317,72.0203,289.3739,0,U,40977,999,10956,.2406E-3,.2752E-4,0
HORYU-4,2016-012D,2026-05-13T05:55:23.074176,15.78097367,.0005472,30.9892,331.6842,27.9931,332.1020,0,U,41340,999,56526,.67326E-3,.121737E-2,0
RAVAN,2016-067B,2026-05-13T05:57:19.805760,15.51427623,.0007278,97.9946,18.8757,119.3669,240.8309,0,U,41849,999,52227,.45194E-3,.26611E-3,0
CELTEE 1,2016-067C,2026-05-13T02:34:55.681824,15.19324507,.0001792,98.0723,357.2843,59.7380,300.4030,0,U,41850,999,52055,.15321E-3,.3158E-4,0
OPTICUBE 04,2016-067D,2026-05-13T03:31:37.623936,15.09505472,.0014455,98.0736,343.5998,233.2392,126.7509,0,U,41851,999,51988,.83155E-4,.1264E-4,0
AEROCUBE 8D,2016-067E,2026-05-13T08:38:00.716064,15.23894158,.0001971,98.0733,0.8881,244.2585,115.8447,0,U,41852,999,52076,.18605E-3,.441E-4,0
AEROCUBE 8C,2016-067F,2026-05-13T04:38:21.532992,15.24130289,.0005544,98.0606,357.9825,166.2003,193.9385,0,U,41853,999,52073,.1783E-3,.4254E-4,0
CORVUS BC2,2017-042X,2026-05-13T09:11:04.005600,15.06068076,.0011955,97.4037,296.0992,225.8912,134.1332,0,U,42846,999,48182,.14751E-3,.2097E-4,0
CORVUS BC1,2017-042Y,2026-05-13T10:44:39.662592,15.06240062,.0011345,97.4069,296.9530,199.4659,160.6137,0,U,42847,999,48186,.14225E-3,.203E-4,0
MAKERSAT 0,2017-073D,2026-05-13T11:35:01.235616,15.30589189,.0111589,97.4684,15.7628,37.3808,323.5129,0,U,43016,999,46115,.47776E-3,.17071E-3,0
