PERSEUS-M1              
1 40039U 14033AF  26133.37918625  .00001314  00000+0  12397-3 0  9996
2 40039  97.9628  76.9475 0012845  57.4952 302.7508 14.95509627645434
POLYITAN-1              
1 40042U 14033AJ  26133.05669353  .00010021  00000+0  32682-3 0  9990
2 40042  98.0975 156.0281 0005376 265.7618  94.3007 15.32019115648211
TIGRISAT                
1 40043U 14033AK  26133.41623080  .00001379  00000+0  16459-3 0  9998
2 40043  97.7790 284.2372 0049316 187.0983 172.9540 14.85008518640467
AEROCUBE 6A             
1 40045U 14033AM  26133.42029334  .00004377  00000+0  37233-3 0  9997
2 40045  97.7215 300.7558 0040272 130.3605 230.1145 14.97711925641415
AEROCUBE 6B             
1 40046U 14033AN  26133.45610734  .00003850  00000+0  31692-3 0  9999
2 40046  97.7169 300.5116 0037989 123.7099 236.7754 14.99132953641559
CANX-4                  
1 40055U 14034C   26133.15986139  .00000543  00000+0  77075-4 0  9994
2 40055  98.3170   7.1807 0013890 120.6264 239.6319 14.81197448639344
CANX-5                  
1 40056U 14034D   26133.22625172  .00000543  00000+0  77001-4 0  9999
2 40056  98.3171   7.2908 0013907 120.6263 239.6321 14.81214543630167
UKUBE-1                 
1 40074U 14037F   26133.45317358  .00004504  00000+0  25970-3 0  9999
2 40074  98.4244 133.0939 0000418  66.1202 294.0070 15.12978180643306
BRITE-PL2 (HEWELIUSZ)   
1 40119U 14049B   26133.29015190  .00000711  00000+0  71365-4 0  9999
2 40119  97.9058 245.0324 0013130 221.1649 138.8581 14.94457930636238
AEROCUBE 5C             
1 40965U 15058B   26133.03268701  .00002014  00000+0  18717-3 0  9998
2 40965  64.7690  11.9373 0129795  77.0915 284.4657 14.91248892360412
AEROCUBE 7              
1 40966U 15058C   26133.32920191  .00002843  00000+0  23638-3 0  9997
2 40966  64.7635 353.9763 0119604  75.6759 285.7599 14.95447355360746
FOX-1A (AO-85)          
1 40967U 15058D   26133.13585852  .00002000  00000+0  18869-3 0  9993
2 40967  64.7769  27.8942 0128985  70.3373 291.1605 14.90756995108340
SINOD-D 1               
1 40968U 15058E   26133.04384483  .00002830  00000+0  23539-3 0  9992
2 40968  64.7766   8.9440 0117476  67.1657 294.1813 14.95623695111403
SNAP-3 ALICE            
1 40970U 15058G   26133.34524421  .00051271  00000+0  78457-3 0  9998
2 40970  64.7535 223.6779 0032894  30.2775 330.0259 15.53437891111469
LMRST-SAT               
1 40971U 15058H   26133.14941863  .00001964  00000+0  18660-3 0  9994
2 40971  64.7775  24.1244 0130776  72.3606 289.1737 14.90382370108333
SNAP-3 EDDIE            
1 40972U 15058J   26133.36181398  .00051085  00000+0  74919-3 0  9996
2 40972  64.7452 214.5951 0033313  34.1764 326.1514 15.54582077113604
PROPCUBE 3              
1 40973U 15058K   26133.06974406  .00002573  00000+0  22188-3 0  9993
2 40973  64.7701   2.2358 0122935  73.9002 287.5606 14.94012121109552
BISONSAT                
1 40974U 15058L   26133.39608448  .00007251  00000+0  36270-3 0  9995
2 40974  64.7593 286.0564 0078723  62.2935 298.6147 15.15470103110348
SNAP-3 JIMI             
1 40975U 15058M   26132.96993897  .00004121  00000+0  29163-3 0  9999
2 40975  64.7659 331.1663 0104934  69.9706 291.2672 15.01929999108939
PROPCUBE 1 (FLORA)      
1 40976U 15058N   26133.13928822  .00001810  00000+0  17989-3 0  9991
2 40976  64.7760  43.8406 0129583  74.6421 286.8966 14.89015947111045
SINOD-D 3               
1 40977U 15058P   26133.43012160  .00002752  00000+0  24060-3 0  9998
2 40977  64.7741  24.3317 0118078  72.0203 289.3739 14.93741797109561
HORYU-4                 
1 41340U 16012D   26133.24679484  .00121737  00000+0  67326-3 0  9998
2 41340  30.9892 331.6842 0005472  27.9931 332.1020 15.78097367565269
RAVAN                   
1 41849U 16067B   26133.24814590  .00026611  00000+0  45194-3 0  9995
2 41849  97.9946  18.8757 0007278 119.3669 240.8309 15.51427623522277
CELTEE 1                
1 41850U 16067C   26133.10758891  .00003158  00000+0  15321-3 0  9993
2 41850  98.0723 357.2843 0001792  59.7380 300.4030 15.19324507520556
OPTICUBE 04             
1 41851U 16067D   26133.14696324  .00001264  00000+0  83155-4 0  9997
2 41851  98.0736 343.5998 0014455 233.2392 126.7509 15.09505472519887
AEROCUBE 8D             
1 41852U 16067E   26133.35973051  .00004410  00000+0  18605-3 0  9999
2 41852  98.0733   0.8881 0001971 244.2585 115.8447 15.23894158520761
AEROCUBE 8C             
1 41853U 16067F   26133.19330478  .00004254  00000+0  17830-3 0  9997
2 41853  98.0606 357.9825 0005544 166.2003 193.9385 15.24130289520737
CORVUS BC2              
1 42846U 17042X   26133.38268525  .00002097  00000+0  14751-3 0  9990
2 42846  97.4037 296.0992 0011955 225.8912 134.1332 15.06068076481822
CORVUS BC1              
1 42847U 17042Y   26133.44768128  .00002030  00000+0  14225-3 0  9995
2 42847  97.4069 296.9530 0011345 199.4659 160.6137 15.06240062481860
MAKERSAT 0              
1 43016U 17073D   26133.48265319  .00017071  00000+0  47776-3 0  9994
2 43016  97.4684  15.7628 0111589  37.3808 323.5129 15.30589189461158
